[{"OBJECT_NAME":"IRIDIUM 152","OBJECT_ID":"2018-047D","EPOCH":"2026-03-02T16:54:58.289184","MEAN_MOTION":14.34218219,"ECCENTRICITY":0.0002277,"INCLINATION":86.3987,"RA_OF_ASC_NODE":132.8615,"ARG_OF_PERICENTER":93.0223,"MEAN_ANOMALY":267.1234,"EPHEMERIS_TYPE":0,"CLASSIFICATION_TYPE":"U","NORAD_CAT_ID":43479,"ELEMENT_SET_NO":999,"REV_AT_EPOCH":40722,"BSTAR":7.4277e-5,"MEAN_MOTION_DOT":2.28e-6,"MEAN_MOTION_DDOT":0},{"OBJECT_NAME":"IRIDIUM 147","OBJECT_ID":"2018-047E","EPOCH":"2026-03-02T17:04:06.220704","MEAN_MOTION":14.34218361,"ECCENTRICITY":0.0002204,"INCLINATION":86.3989,"RA_OF_ASC_NODE":132.8621,"ARG_OF_PERICENTER":99.4452,"MEAN_ANOMALY":260.6993,"EPHEMERIS_TYPE":0,"CLASSIFICATION_TYPE":"U","NORAD_CAT_ID":43480,"ELEMENT_SET_NO":999,"REV_AT_EPOCH":40722,"BSTAR":3.5337e-5,"MEAN_MOTION_DOT":1.19e-6,"MEAN_MOTION_DDOT":0},{"OBJECT_NAME":"IRIDIUM 110","OBJECT_ID":"2018-047F","EPOCH":"2026-03-02T17:13:14.359584","MEAN_MOTION":14.34217753,"ECCENTRICITY":0.0002561,"INCLINATION":86.3991,"RA_OF_ASC_NODE":132.9484,"ARG_OF_PERICENTER":90.4593,"MEAN_ANOMALY":269.6896,"EPHEMERIS_TYPE":0,"CLASSIFICATION_TYPE":"U","NORAD_CAT_ID":43481,"ELEMENT_SET_NO":999,"REV_AT_EPOCH":40721,"BSTAR":1.1035e-5,"MEAN_MOTION_DOT":5.1e-7,"MEAN_MOTION_DDOT":0},{"OBJECT_NAME":"IRIDIUM 162","OBJECT_ID":"2018-047G","EPOCH":"2026-03-02T17:45:23.668128","MEAN_MOTION":14.43281218,"ECCENTRICITY":0.0002123,"INCLINATION":86.4511,"RA_OF_ASC_NODE":132.8788,"ARG_OF_PERICENTER":91.853,"MEAN_ANOMALY":268.2914,"EPHEMERIS_TYPE":0,"CLASSIFICATION_TYPE":"U","NORAD_CAT_ID":43482,"ELEMENT_SET_NO":999,"REV_AT_EPOCH":40977,"BSTAR":0.00010752,"MEAN_MOTION_DOT":3.82e-6,"MEAN_MOTION_DDOT":0},{"OBJECT_NAME":"IRIDIUM 160","OBJECT_ID":"2018-061A","EPOCH":"2026-03-02T14:14:46.508640","MEAN_MOTION":14.34218157,"ECCENTRICITY":0.0002372,"INCLINATION":86.3926,"RA_OF_ASC_NODE":101.386,"ARG_OF_PERICENTER":92.7525,"MEAN_ANOMALY":267.3943,"EPHEMERIS_TYPE":0,"CLASSIFICATION_TYPE":"U","NORAD_CAT_ID":43569,"ELEMENT_SET_NO":999,"REV_AT_EPOCH":39809,"BSTAR":2.7941e-5,"MEAN_MOTION_DOT":9.8e-7,"MEAN_MOTION_DDOT":0},{"OBJECT_NAME":"IRIDIUM 166","OBJECT_ID":"2018-061B","EPOCH":"2026-03-02T14:51:18.468864","MEAN_MOTION":14.34218115,"ECCENTRICITY":0.0002176,"INCLINATION":86.3922,"RA_OF_ASC_NODE":101.3272,"ARG_OF_PERICENTER":96.3897,"MEAN_ANOMALY":263.7547,"EPHEMERIS_TYPE":0,"CLASSIFICATION_TYPE":"U","NORAD_CAT_ID":43570,"ELEMENT_SET_NO":999,"REV_AT_EPOCH":39812,"BSTAR":4.7418e-5,"MEAN_MOTION_DOT":1.53e-6,"MEAN_MOTION_DDOT":0},{"OBJECT_NAME":"IRIDIUM 158","OBJECT_ID":"2018-061C","EPOCH":"2026-03-02T15:46:06.331872","MEAN_MOTION":14.3421641,"ECCENTRICITY":0.0002029,"INCLINATION":86.3928,"RA_OF_ASC_NODE":101.3209,"ARG_OF_PERICENTER":89.4651,"MEAN_ANOMALY":270.6778,"EPHEMERIS_TYPE":0,"CLASSIFICATION_TYPE":"U","NORAD_CAT_ID":43571,"ELEMENT_SET_NO":999,"REV_AT_EPOCH":39809,"BSTAR":-2.0443e-5,"MEAN_MOTION_DOT":-3.7e-7,"MEAN_MOTION_DDOT":0},{"OBJECT_NAME":"IRIDIUM 165","OBJECT_ID":"2018-061D","EPOCH":"2026-03-02T14:42:10.474272","MEAN_MOTION":14.3421776,"ECCENTRICITY":0.0002173,"INCLINATION":86.3924,"RA_OF_ASC_NODE":101.3841,"ARG_OF_PERICENTER":96.6491,"MEAN_ANOMALY":263.4952,"EPHEMERIS_TYPE":0,"CLASSIFICATION_TYPE":"U","NORAD_CAT_ID":43572,"ELEMENT_SET_NO":999,"REV_AT_EPOCH":39811,"BSTAR":2.5606e-5,"MEAN_MOTION_DOT":9.1e-7,"MEAN_MOTION_DDOT":0},{"OBJECT_NAME":"IRIDIUM 155","OBJECT_ID":"2018-061E","EPOCH":"2026-03-02T15:27:50.442912","MEAN_MOTION":14.3421755,"ECCENTRICITY":0.000195,"INCLINATION":86.3922,"RA_OF_ASC_NODE":101.2447,"ARG_OF_PERICENTER":92.6432,"MEAN_ANOMALY":267.4987,"EPHEMERIS_TYPE":0,"CLASSIFICATION_TYPE":"U","NORAD_CAT_ID":43573,"ELEMENT_SET_NO":999,"REV_AT_EPOCH":39808,"BSTAR":-2.1327e-5,"MEAN_MOTION_DOT":-4.0e-7,"MEAN_MOTION_DDOT":0},{"OBJECT_NAME":"IRIDIUM 154","OBJECT_ID":"2018-061F","EPOCH":"2026-03-02T15:00:27.750816","MEAN_MOTION":14.34220996,"ECCENTRICITY":0.0002188,"INCLINATION":86.3926,"RA_OF_ASC_NODE":101.3816,"ARG_OF_PERICENTER":98.9479,"MEAN_ANOMALY":261.1965,"EPHEMERIS_TYPE":0,"CLASSIFICATION_TYPE":"U","NORAD_CAT_ID":43574,"ELEMENT_SET_NO":999,"REV_AT_EPOCH":39813,"BSTAR":9.7184e-5,"MEAN_MOTION_DOT":2.92e-6,"MEAN_MOTION_DDOT":0},{"OBJECT_NAME":"IRIDIUM 163","OBJECT_ID":"2018-061G","EPOCH":"2026-03-02T14:33:02.504736","MEAN_MOTION":14.34217719,"ECCENTRICITY":0.0002258,"INCLINATION":86.3924,"RA_OF_ASC_NODE":101.3084,"ARG_OF_PERICENTER":91.5058,"MEAN_ANOMALY":268.6396,"EPHEMERIS_TYPE":0,"CLASSIFICATION_TYPE":"U","NORAD_CAT_ID":43575,"ELEMENT_SET_NO":999,"REV_AT_EPOCH":39810,"BSTAR":1.0391e-5,"MEAN_MOTION_DOT":4.9e-7,"MEAN_MOTION_DDOT":0},{"OBJECT_NAME":"IRIDIUM 156","OBJECT_ID":"2018-061H","EPOCH":"2026-03-02T15:36:58.454784","MEAN_MOTION":14.34217887,"ECCENTRICITY":0.000203,"INCLINATION":86.3922,"RA_OF_ASC_NODE":101.2967,"ARG_OF_PERICENTER":93.4733,"MEAN_ANOMALY":266.6695,"EPHEMERIS_TYPE":0,"CLASSIFICATION_TYPE":"U","NORAD_CAT_ID":43576,"ELEMENT_SET_NO":999,"REV_AT_EPOCH":39810,"BSTAR":1.6675e-5,"MEAN_MOTION_DOT":6.6e-7,"MEAN_MOTION_DDOT":0},{"OBJECT_NAME":"IRIDIUM 164","OBJECT_ID":"2018-061J","EPOCH":"2026-03-02T15:09:34.475328","MEAN_MOTION":14.34218286,"ECCENTRICITY":0.0002325,"INCLINATION":86.3925,"RA_OF_ASC_NODE":101.3435,"ARG_OF_PERICENTER":98.049,"MEAN_ANOMALY":262.097,"EPHEMERIS_TYPE":0,"CLASSIFICATION_TYPE":"U","NORAD_CAT_ID":43577,"ELEMENT_SET_NO":999,"REV_AT_EPOCH":39814,"BSTAR":3.3661e-5,"MEAN_MOTION_DOT":1.14e-6,"MEAN_MOTION_DDOT":0},{"OBJECT_NAME":"IRIDIUM 159","OBJECT_ID":"2018-061K","EPOCH":"2026-03-02T14:23:54.523968","MEAN_MOTION":14.34217283,"ECCENTRICITY":0.0002276,"INCLINATION":86.3923,"RA_OF_ASC_NODE":101.2953,"ARG_OF_PERICENTER":92.4471,"MEAN_ANOMALY":267.6985,"EPHEMERIS_TYPE":0,"CLASSIFICATION_TYPE":"U","NORAD_CAT_ID":43578,"ELEMENT_SET_NO":999,"REV_AT_EPOCH":39810,"BSTAR":-3.8964e-5,"MEAN_MOTION_DOT":-8.9e-7,"MEAN_MOTION_DDOT":0},{"OBJECT_NAME":"IRIDIUM 180","OBJECT_ID":"2019-002A","EPOCH":"2026-03-02T11:02:14.950464","MEAN_MOTION":14.34217703,"ECCENTRICITY":0.00023146,"INCLINATION":86.3961,"RA_OF_ASC_NODE":38.1876,"ARG_OF_PERICENTER":86.4348,"MEAN_ANOMALY":273.7113,"EPHEMERIS_TYPE":0,"CLASSIFICATION_TYPE":"U","NORAD_CAT_ID":43922,"ELEMENT_SET_NO":999,"REV_AT_EPOCH":37369,"BSTAR":9.423032e-6,"MEAN_MOTION_DOT":4.6e-7,"MEAN_MOTION_DDOT":0},{"OBJECT_NAME":"IRIDIUM 176","OBJECT_ID":"2019-002B","EPOCH":"2026-03-02T20:34:46.886304","MEAN_MOTION":14.72261783,"ECCENTRICITY":0.0002348,"INCLINATION":86.6082,"RA_OF_ASC_NODE":37.9795,"ARG_OF_PERICENTER":87.5252,"MEAN_ANOMALY":272.6234,"EPHEMERIS_TYPE":0,"CLASSIFICATION_TYPE":"U","NORAD_CAT_ID":43923,"ELEMENT_SET_NO":999,"REV_AT_EPOCH":38360,"BSTAR":0.00020032,"MEAN_MOTION_DOT":1.288e-5,"MEAN_MOTION_DDOT":0},{"OBJECT_NAME":"IRIDIUM 168","OBJECT_ID":"2019-002C","EPOCH":"2026-03-02T10:53:06.766656","MEAN_MOTION":14.34219714,"ECCENTRICITY":0.00022283,"INCLINATION":86.3961,"RA_OF_ASC_NODE":38.2645,"ARG_OF_PERICENTER":86.8555,"MEAN_ANOMALY":273.2895,"EPHEMERIS_TYPE":0,"CLASSIFICATION_TYPE":"U","NORAD_CAT_ID":43924,"ELEMENT_SET_NO":999,"REV_AT_EPOCH":37367,"BSTAR":0.00011852786,"MEAN_MOTION_DOT":3.52e-6,"MEAN_MOTION_DDOT":0}]
